[{"OBJECT_NAME":"STARLINK-6032","OBJECT_ID":"2023-099AV","EPOCH":"2025-07-31T02:22:29.422560","MEAN_MOTION":15.02534117,"ECCENTRICITY":0.0001156,"INCLINATION":43.0046,"RA_OF_ASC_NODE":359.9946,"ARG_OF_PERICENTER":281.2416,"MEAN_ANOMALY":78.8297,"EPHEMERIS_TYPE":0,"CLASSIFICATION_TYPE":"U","NORAD_CAT_ID":57371,"ELEMENT_SET_NO":999,"REV_AT_EPOCH":11362,"BSTAR":4.2177e-5,"MEAN_MOTION_DOT":3.66e-6,"MEAN_MOTION_DDOT":0},{"OBJECT_NAME":"STARLINK-5975","OBJECT_ID":"2023-099AW","EPOCH":"2025-07-30T17:53:28.741056","MEAN_MOTION":15.02537097,"ECCENTRICITY":0.0001091,"INCLINATION":43.0035,"RA_OF_ASC_NODE":1.6331,"ARG_OF_PERICENTER":273.1238,"MEAN_ANOMALY":86.9479,"EPHEMERIS_TYPE":0,"CLASSIFICATION_TYPE":"U","NORAD_CAT_ID":57372,"ELEMENT_SET_NO":999,"REV_AT_EPOCH":11288,"BSTAR":2.5591e-5,"MEAN_MOTION_DOT":1.42e-6,"MEAN_MOTION_DDOT":0},{"OBJECT_NAME":"STARLINK-6370","OBJECT_ID":"2023-099AX","EPOCH":"2025-07-31T03:12:01.716480","MEAN_MOTION":15.02539868,"ECCENTRICITY":0.0001269,"INCLINATION":43.006,"RA_OF_ASC_NODE":0.2398,"ARG_OF_PERICENTER":267.3017,"MEAN_ANOMALY":92.768,"EPHEMERIS_TYPE":0,"CLASSIFICATION_TYPE":"U","NORAD_CAT_ID":57373,"ELEMENT_SET_NO":999,"REV_AT_EPOCH":11367,"BSTAR":5.0007e-5,"MEAN_MOTION_DOT":4.72e-6,"MEAN_MOTION_DDOT":0},{"OBJECT_NAME":"STARLINK-6369","OBJECT_ID":"2023-099AY","EPOCH":"2025-07-30T20:06:20.546784","MEAN_MOTION":15.02534473,"ECCENTRICITY":0.0001288,"INCLINATION":43.0053,"RA_OF_ASC_NODE":348.4623,"ARG_OF_PERICENTER":267.8031,"MEAN_ANOMALY":92.2664,"EPHEMERIS_TYPE":0,"CLASSIFICATION_TYPE":"U","NORAD_CAT_ID":57374,"ELEMENT_SET_NO":999,"REV_AT_EPOCH":11304,"BSTAR":-1.3071e-5,"MEAN_MOTION_DOT":-3.8e-6,"MEAN_MOTION_DDOT":0},{"OBJECT_NAME":"STARLINK-6363","OBJECT_ID":"2023-099AZ","EPOCH":"2025-07-30T18:03:04.294656","MEAN_MOTION":15.02535625,"ECCENTRICITY":0.0001225,"INCLINATION":43.005,"RA_OF_ASC_NODE":1.6959,"ARG_OF_PERICENTER":263.9834,"MEAN_ANOMALY":96.0868,"EPHEMERIS_TYPE":0,"CLASSIFICATION_TYPE":"U","NORAD_CAT_ID":57375,"ELEMENT_SET_NO":999,"REV_AT_EPOCH":11288,"BSTAR":6.5184e-6,"MEAN_MOTION_DOT":-1.16e-6,"MEAN_MOTION_DDOT":0},{"OBJECT_NAME":"STARLINK-6367","OBJECT_ID":"2023-099BA","EPOCH":"2025-07-30T17:48:41.118048","MEAN_MOTION":15.02536037,"ECCENTRICITY":0.0001767,"INCLINATION":43.0054,"RA_OF_ASC_NODE":1.6188,"ARG_OF_PERICENTER":263.5292,"MEAN_ANOMALY":96.5349,"EPHEMERIS_TYPE":0,"CLASSIFICATION_TYPE":"U","NORAD_CAT_ID":57376,"ELEMENT_SET_NO":999,"REV_AT_EPOCH":11288,"BSTAR":1.1246e-5,"MEAN_MOTION_DOT":-5.2e-7,"MEAN_MOTION_DDOT":0},{"OBJECT_NAME":"STARLINK-6358","OBJECT_ID":"2023-099BB","EPOCH":"2025-07-30T17:55:04.310688","MEAN_MOTION":15.02541363,"ECCENTRICITY":0.0001419,"INCLINATION":43.0051,"RA_OF_ASC_NODE":1.6519,"ARG_OF_PERICENTER":270.4249,"MEAN_ANOMALY":89.643,"EPHEMERIS_TYPE":0,"CLASSIFICATION_TYPE":"U","NORAD_CAT_ID":57377,"ELEMENT_SET_NO":999,"REV_AT_EPOCH":11288,"BSTAR":9.8779e-5,"MEAN_MOTION_DOT":1.131e-5,"MEAN_MOTION_DDOT":0},{"OBJECT_NAME":"STARLINK-6364","OBJECT_ID":"2023-099BC","EPOCH":"2025-07-31T00:47:32.214336","MEAN_MOTION":15.02513952,"ECCENTRICITY":0.0001006,"INCLINATION":43.0034,"RA_OF_ASC_NODE":334.3499,"ARG_OF_PERICENTER":269.4309,"MEAN_ANOMALY":90.6418,"EPHEMERIS_TYPE":0,"CLASSIFICATION_TYPE":"U","NORAD_CAT_ID":57378,"ELEMENT_SET_NO":999,"REV_AT_EPOCH":11396,"BSTAR":-0.00018837,"MEAN_MOTION_DOT":-2.746e-5,"MEAN_MOTION_DDOT":0},{"OBJECT_NAME":"STARLINK-6361","OBJECT_ID":"2023-099BD","EPOCH":"2025-07-31T03:24:40.300704","MEAN_MOTION":15.02534709,"ECCENTRICITY":0.0001208,"INCLINATION":43.0053,"RA_OF_ASC_NODE":359.4572,"ARG_OF_PERICENTER":266.3035,"MEAN_ANOMALY":93.7669,"EPHEMERIS_TYPE":0,"CLASSIFICATION_TYPE":"U","NORAD_CAT_ID":57379,"ELEMENT_SET_NO":999,"REV_AT_EPOCH":11368,"BSTAR":5.9597e-5,"MEAN_MOTION_DOT":6.01e-6,"MEAN_MOTION_DDOT":0},{"OBJECT_NAME":"STARLINK-6366","OBJECT_ID":"2023-099BE","EPOCH":"2025-07-30T16:47:15.552384","MEAN_MOTION":15.0253767,"ECCENTRICITY":0.0001104,"INCLINATION":43.0039,"RA_OF_ASC_NODE":336.1442,"ARG_OF_PERICENTER":267.3617,"MEAN_ANOMALY":92.7099,"EPHEMERIS_TYPE":0,"CLASSIFICATION_TYPE":"U","NORAD_CAT_ID":57380,"ELEMENT_SET_NO":999,"REV_AT_EPOCH":11390,"BSTAR":4.6556e-5,"MEAN_MOTION_DOT":4.25e-6,"MEAN_MOTION_DDOT":0},{"OBJECT_NAME":"STARLINK-6371","OBJECT_ID":"2023-099BF","EPOCH":"2025-07-31T01:28:43.004640","MEAN_MOTION":15.0252506,"ECCENTRICITY":0.0001484,"INCLINATION":43.0059,"RA_OF_ASC_NODE":347.5503,"ARG_OF_PERICENTER":277.6119,"MEAN_ANOMALY":82.4555,"EPHEMERIS_TYPE":0,"CLASSIFICATION_TYPE":"U","NORAD_CAT_ID":57381,"ELEMENT_SET_NO":999,"REV_AT_EPOCH":11381,"BSTAR":-0.00035286,"MEAN_MOTION_DOT":-4.966e-5,"MEAN_MOTION_DDOT":0},{"OBJECT_NAME":"STARLINK-30240","OBJECT_ID":"2023-102A","EPOCH":"2025-07-30T22:05:17.115072","MEAN_MOTION":15.0253544,"ECCENTRICITY":0.0001313,"INCLINATION":43.0038,"RA_OF_ASC_NODE":14.1551,"ARG_OF_PERICENTER":263.3702,"MEAN_ANOMALY":96.6991,"EPHEMERIS_TYPE":0,"CLASSIFICATION_TYPE":"U","NORAD_CAT_ID":57404,"ELEMENT_SET_NO":999,"REV_AT_EPOCH":11287,"BSTAR":-7.1798e-6,"MEAN_MOTION_DOT":-3.01e-6,"MEAN_MOTION_DDOT":0},{"OBJECT_NAME":"STARLINK-30192","OBJECT_ID":"2023-102B","EPOCH":"2025-07-30T17:13:17.926176","MEAN_MOTION":15.02548776,"ECCENTRICITY":8.2e-5,"INCLINATION":43.0037,"RA_OF_ASC_NODE":15.1981,"ARG_OF_PERICENTER":264.489,"MEAN_ANOMALY":95.5859,"EPHEMERIS_TYPE":0,"CLASSIFICATION_TYPE":"U","NORAD_CAT_ID":57405,"ELEMENT_SET_NO":999,"REV_AT_EPOCH":11284,"BSTAR":2.2266e-5,"MEAN_MOTION_DOT":9.7e-7,"MEAN_MOTION_DDOT":0},{"OBJECT_NAME":"STARLINK-30195","OBJECT_ID":"2023-102C","EPOCH":"2025-07-30T18:44:14.165664","MEAN_MOTION":15.02536627,"ECCENTRICITY":0.0001322,"INCLINATION":43.0048,"RA_OF_ASC_NODE":14.8267,"ARG_OF_PERICENTER":267.8573,"MEAN_ANOMALY":92.2118,"EPHEMERIS_TYPE":0,"CLASSIFICATION_TYPE":"U","NORAD_CAT_ID":57406,"ELEMENT_SET_NO":999,"REV_AT_EPOCH":11285,"BSTAR":3.8753e-5,"MEAN_MOTION_DOT":3.2e-6,"MEAN_MOTION_DDOT":0},{"OBJECT_NAME":"STARLINK-30207","OBJECT_ID":"2023-102D","EPOCH":"2025-07-30T17:56:40.508448","MEAN_MOTION":15.02535207,"ECCENTRICITY":0.0001337,"INCLINATION":43.0044,"RA_OF_ASC_NODE":1.6586,"ARG_OF_PERICENTER":261.6172,"MEAN_ANOMALY":98.4519,"EPHEMERIS_TYPE":0,"CLASSIFICATION_TYPE":"U","NORAD_CAT_ID":57407,"ELEMENT_SET_NO":999,"REV_AT_EPOCH":11301,"BSTAR":6.0668e-5,"MEAN_MOTION_DOT":6.16e-6,"MEAN_MOTION_DDOT":0},{"OBJECT_NAME":"STARLINK-30205","OBJECT_ID":"2023-102E","EPOCH":"2025-07-31T04:04:13.370880","MEAN_MOTION":15.02534943,"ECCENTRICITY":0.0001328,"INCLINATION":43.005,"RA_OF_ASC_NODE":12.5857,"ARG_OF_PERICENTER":265.9954,"MEAN_ANOMALY":94.0737,"EPHEMERIS_TYPE":0,"CLASSIFICATION_TYPE":"U","NORAD_CAT_ID":57408,"ELEMENT_SET_NO":999,"REV_AT_EPOCH":11291,"BSTAR":3.6656e-5,"MEAN_MOTION_DOT":2.92e-6,"MEAN_MOTION_DDOT":0},{"OBJECT_NAME":"STARLINK-30222","OBJECT_ID":"2023-102F","EPOCH":"2025-07-31T03:49:50.323008","MEAN_MOTION":15.02537846,"ECCENTRICITY":0.0001054,"INCLINATION":43.0039,"RA_OF_ASC_NODE":12.5136,"ARG_OF_PERICENTER":268.0655,"MEAN_ANOMALY":92.0067,"EPHEMERIS_TYPE":0,"CLASSIFICATION_TYPE":"U","NORAD_CAT_ID":57409,"ELEMENT_SET_NO":999,"REV_AT_EPOCH":11291,"BSTAR":4.0621e-5,"MEAN_MOTION_DOT":3.45e-6,"MEAN_MOTION_DDOT":0}]
