STARLINK-6032           
1 57371U 23099AV  25212.09895165  .00000366  00000+0  42177-4 0  9990
2 57371  43.0046 359.9946 0001156 281.2416  78.8297 15.02534117113627
STARLINK-5975           
1 57372U 23099AW  25211.74547154  .00000142  00000+0  25591-4 0  9997
2 57372  43.0035   1.6331 0001091 273.1238  86.9479 15.02537097112884
STARLINK-6370           
1 57373U 23099AX  25212.13335320  .00000472  00000+0  50007-4 0  9998
2 57373  43.0060   0.2398 0001269 267.3017  92.7680 15.02539868113673
STARLINK-6369           
1 57374U 23099AY  25211.83773781 -.00000380  00000+0 -13071-4 0  9992
2 57374  43.0053 348.4623 0001288 267.8031  92.2664 15.02534473113041
STARLINK-6363           
1 57375U 23099AZ  25211.75213304 -.00000116  00000+0  65184-5 0  9993
2 57375  43.0050   1.6959 0001225 263.9834  96.0868 15.02535625112887
STARLINK-6367           
1 57376U 23099BA  25211.74214257 -.00000052  00000+0  11246-4 0  9999
2 57376  43.0054   1.6188 0001767 263.5292  96.5349 15.02536037112888
STARLINK-6358           
1 57377U 23099BB  25211.74657767  .00001131  00000+0  98779-4 0  9991
2 57377  43.0051   1.6519 0001419 270.4249  89.6430 15.02541363112889
STARLINK-6364           
1 57378U 23099BC  25212.03301174 -.00002746  00000+0 -18837-3 0  9994
2 57378  43.0034 334.3499 0001006 269.4309  90.6418 15.02513952113962
STARLINK-6361           
1 57379U 23099BD  25212.14213311  .00000601  00000+0  59597-4 0  9997
2 57379  43.0053 359.4572 0001208 266.3035  93.7669 15.02534709113684
STARLINK-6366           
1 57380U 23099BE  25211.69948556  .00000425  00000+0  46556-4 0  9999
2 57380  43.0039 336.1442 0001104 267.3617  92.7099 15.02537670113901
STARLINK-6371           
1 57381U 23099BF  25212.06160885 -.00004966  00000+0 -35286-3 0  9996
2 57381  43.0059 347.5503 0001484 277.6119  82.4555 15.02525060113813
STARLINK-30240          
1 57404U 23102A   25211.92033698 -.00000301  00000+0 -71798-5 0  9991
2 57404  43.0038  14.1551 0001313 263.3702  96.6991 15.02535440112876
STARLINK-30192          
1 57405U 23102B   25211.71756859  .00000097  00000+0  22266-4 0  9995
2 57405  43.0037  15.1981 0000820 264.4890  95.5859 15.02548776112840
STARLINK-30195          
1 57406U 23102C   25211.78071951  .00000320  00000+0  38753-4 0  9993
2 57406  43.0048  14.8267 0001322 267.8573  92.2118 15.02536627112854
STARLINK-30207          
1 57407U 23102D   25211.74769107  .00000616  00000+0  60668-4 0  9995
2 57407  43.0044   1.6586 0001337 261.6172  98.4519 15.02535207113017
STARLINK-30205          
1 57408U 23102E   25212.16959920  .00000292  00000+0  36656-4 0  9997
2 57408  43.0050  12.5857 0001328 265.9954  94.0737 15.02534943112910
STARLINK-30222          
1 57409U 23102F   25212.15961022  .00000345  00000+0  40621-4 0  9999
2 57409  43.0039  12.5136 0001054 268.0655  92.0067 15.02537846112915
